STARLINK-32246          
1 60432U 24144H   26068.72540699 -.00002419  00000+0 -69639-4 0  9998
2 60432  53.1605 217.0336 0001159  99.4458 260.6674 15.30175002 89310
HAWK-11B                
1 62379U 24247C   26068.44730104  .00009093  00000+0  32842-3 0  9993
2 62379  45.0161 115.7610 0004690 333.0326  27.0314 15.28847070 67738
